NORAD_CAT_ID,OBJECT_NAME,OBJECT_TYPE,EPOCH,MEAN_MOTION,ECCENTRICITY,INCLINATION,RA_OF_ASC_NODE,ARG_OF_PERICENTER,MEAN_ANOMALY,BSTAR,MEAN_MOTION_DOT,MEAN_MOTION_DDOT,TLE_LINE0,TLE_LINE1,TLE_LINE2,SEMIMAJOR_AXIS,PERIOD,APOGEE,PERIGEE,DECAYED
52000.0,STARLINK-3653,PAYLOAD,2024-03-08 03:04:23,15.08843217,0.0001684,53.2157,63.1387,99.6898,260.4284,0.00015223,2.136e-05,0.0,0 STARLINK-3653,1 52000U 22025AW  24068.12804899  .00002136  00000-0  15223-3 0  9997,2 52000  53.2157  63.1387 0001684  99.6898 260.4284 15.08843217112018,6917.871,95.437,540.901,538.571,0.0
52000.0,STARLINK-3653,PAYLOAD,2024-03-08 06:15:09,15.08841687,0.0001464,53.215,62.545,93.2623,266.8537,0.00012647,1.725e-05,0.0,0 STARLINK-3653,1 52000U 22025AW  24068.26052998  .00001725  00000-0  12647-3 0  9997,2 52000  53.2150  62.5450 0001464  93.2623 266.8537 15.08841687110509,6917.875,95.437,540.753,538.727,0.0
52000.0,STARLINK-3653,PAYLOAD,2024-03-09 04:30:33,15.08839363,0.0001443,53.2153,58.381,91.4694,268.6463,4.4257e-05,4.16e-06,0.0,0 STARLINK-3653,1 52000U 22025AW  24069.18789002  .00000416  00000-0  44257-4 0  9991,2 52000  53.2153  58.3810 0001443  91.4694 268.6463 15.08839363112171,6917.882,95.438,540.746,538.749,0.0
52000.0,STARLINK-3653,PAYLOAD,2024-03-09 09:16:43,15.08839764,0.0001483,53.2166,57.4885,95.9505,264.1656,5.6811e-05,6.16e-06,0.0,0 STARLINK-3653,1 52000U 22025AW  24069.38661080  .00000616  00000-0  56811-4 0  9999,2 52000  53.2166  57.4885 0001483  95.9505 264.1656 15.08839764110674,6917.881,95.438,540.772,538.72,0.0
52000.0,STARLINK-3653,PAYLOAD,2024-03-10 09:07:30,15.08839386,0.000148,53.217,53.0286,97.3967,262.7193,8.1189e-05,1.004e-05,0.0,0 STARLINK-3653,1 52000U 22025AW  24070.38021149  .00001004  00000-0  81189-4 0  9995,2 52000  53.2170  53.0286 0001480  97.3967 262.7193 15.08839386112358,6917.882,95.438,540.771,538.723,0.0
52000.0,STARLINK-3653,PAYLOAD,2024-03-11 05:47:31,15.08837642,0.0001414,53.2172,49.1633,82.2387,277.8766,8.1891e-05,1.016e-05,0.0,0 STARLINK-3653,1 52000U 22025AW  24071.24133486  .00001016  00000-0  81891-4 0  9992,2 52000  53.2172  49.1633 0001414  82.2387 277.8766 15.08837642110958,6917.888,95.438,540.731,538.774,0.0
52000.0,STARLINK-3653,PAYLOAD,2024-03-11 21:41:22,15.08839969,0.0001731,53.2178,46.1908,91.8845,268.2345,0.00011351,1.519e-05,0.0,0 STARLINK-3653,1 52000U 22025AW  24071.90373329  .00001519  00000-0  11351-3 0  9998,2 52000  53.2178  46.1908 0001731  91.8845 268.2345 15.08839969112585,6917.88,95.438,540.943,538.548,0.0
52000.0,STARLINK-3653,PAYLOAD,2024-03-12 15:10:36,15.08852968,0.0001404,53.2177,42.9176,81.7158,278.3993,0.00014494,2.02e-05,0.0,0 STARLINK-3653,1 52000U 22025AW  24072.63236198  .00002020  00000-0  14494-3 0  9990,2 52000  53.2177  42.9176 0001404  81.7158 278.3993 15.08852968112694,6917.841,95.437,540.677,538.734,0.0
52000.0,STARLINK-3653,PAYLOAD,2024-03-13 03:53:42,15.08834935,0.0001121,53.2183,40.5378,80.1846,279.9273,-3.8203e-05,-8.96e-06,0.0,0 STARLINK-3653,1 52000U 22025AW  24073.16229841 -.00000896  00000-0 -38203-4 0  9992,2 52000  53.2183  40.5378 0001121  80.1846 279.9273 15.08834935112773,6917.896,95.438,540.536,538.985,0.0
52000.0,STARLINK-3653,PAYLOAD,2024-03-13 07:04:28,15.08843874,0.0001364,53.2184,39.9434,83.65,276.4647,4.0709e-05,3.6e-06,0.0,0 STARLINK-3653,1 52000U 22025AW  24073.29477113  .00000360  00000-0  40709-4 0  9991,2 52000  53.2184  39.9434 0001364  83.6500 276.4647 15.08843874112794,6917.869,95.437,540.677,538.79,0.0
52000.0,STARLINK-3653,PAYLOAD,2024-03-13 15:01:23,15.08847975,0.0001411,53.2187,38.4578,84.2673,275.848,6.9384e-05,8.17e-06,0.0,0 STARLINK-3653,1 52000U 22025AW  24073.62596745  .00000817  00000-0  69384-4 0  9998,2 52000  53.2187  38.4578 0001411  84.2673 275.8480 15.08847975111312,6917.856,95.437,540.697,538.745,0.0
52000.0,STARLINK-3653,PAYLOAD,2024-03-14 03:44:29,15.08841668,0.0001458,53.2181,36.0783,92.0681,268.0478,6.7648e-06,-1.8e-06,0.0,0 STARLINK-3653,1 52000U 22025AW  24074.15589305 -.00000180  00000-0  67648-5 0  9997,2 52000  53.2181  36.0783 0001458  92.0681 268.0478 15.08841668111397,6917.875,95.437,540.749,538.732,0.0
52000.0,STARLINK-3653,PAYLOAD,2024-03-14 21:13:43,15.0883697,0.0001279,53.2185,32.8066,108.5519,251.5612,0.0001346,1.855e-05,0.0,0 STARLINK-3653,1 52000U 22025AW  24074.88452866  .00001855  00000-0  13460-3 0  9998,2 52000  53.2185  32.8066 0001279 108.5519 251.5612 15.08836970113033,6917.89,95.438,540.639,538.87,0.0
52000.0,STARLINK-3653,PAYLOAD,2024-03-15 06:46:02,15.08842048,0.0001459,53.2189,31.0227,108.5516,251.5634,5.9697e-05,6.62e-06,0.0,0 STARLINK-3653,1 52000U 22025AW  24075.28196889  .00000662  00000-0  59697-4 0  9991,2 52000  53.2189  31.0227 0001459 108.5516 251.5634 15.08842048111567,6917.874,95.437,540.748,538.73,0.0
52000.0,STARLINK-3653,PAYLOAD,2024-03-16 03:26:03,15.08838183,0.000146,53.2182,27.156,115.7727,244.3416,9.6777e-06,-1.34e-06,0.0,0 STARLINK-3653,1 52000U 22025AW  24076.14309317 -.00000134  00000-0  96777-5 0  9995,2 52000  53.2182  27.1560 0001460 115.7727 244.3416 15.08838183113220,6917.886,95.438,540.761,538.741,0.0
52000.0,STARLINK-3653,PAYLOAD,2024-03-16 20:55:17,15.08836314,0.0001434,53.2182,23.8855,114.6567,245.4574,3.9884e-05,3.47e-06,0.0,0 STARLINK-3653,1 52000U 22025AW  24076.87173462  .00000347  00000-0  39884-4 0  9995,2 52000  53.2182  23.8855 0001434 114.6567 245.4574 15.08836314111804,6917.892,95.438,540.749,538.765,0.0
52000.0,STARLINK-3653,PAYLOAD,2024-03-17 03:16:50,15.08836508,0.0001422,53.2183,22.6962,112.8982,247.2161,3.673e-05,2.97e-06,0.0,0 STARLINK-3653,1 52000U 22025AW  24077.13669503  .00000297  00000-0  36730-4 0  9992,2 52000  53.2183  22.6962 0001422 112.8982 247.2161 15.08836508111840,6917.891,95.438,540.74,538.772,0.0
52000.0,STARLINK-3653,PAYLOAD,2024-03-17 19:10:41,15.0883637,0.000133,53.2185,19.7229,105.0706,255.0433,5.8609e-05,6.45e-06,0.0,0 STARLINK-3653,1 52000U 22025AW  24077.79909617  .00000645  00000-0  58609-4 0  9993,2 52000  53.2185  19.7229 0001330 105.0706 255.0433 15.08836370113478,6917.891,95.438,540.677,538.836,0.0
52000.0,STARLINK-3653,PAYLOAD,2024-03-18 04:43:00,15.08837576,0.0001342,53.2185,17.9379,105.4194,254.6947,7.3291e-05,8.79e-06,0.0,0 STARLINK-3653,1 52000U 22025AW  24078.19653600  .00000879  00000-0  73291-4 0  9999,2 52000  53.2185  17.9379 0001342 105.4194 254.6947 15.08837576112004,6917.888,95.438,540.681,538.824,0.0
52000.0,STARLINK-3653,PAYLOAD,2024-03-19 02:58:24,15.08838313,0.0001314,53.2189,13.7757,95.983,264.1312,5.9556e-05,6.6e-06,0.0,0 STARLINK-3653,1 52000U 22025AW  24079.12389881  .00000660  00000-0  59556-4 0  9996,2 52000  53.2189  13.7757 0001314  95.9830 264.1312 15.08838313113677,6917.886,95.438,540.66,538.842,0.0
52000.0,STARLINK-3653,PAYLOAD,2024-03-19 04:33:47,15.08840879,0.0001323,53.2189,13.4779,92.7411,267.3732,8.2476e-05,1.025e-05,0.0,0 STARLINK-3653,1 52000U 22025AW  24079.19013736  .00001025  00000-0  82476-4 0  9999,2 52000  53.2189  13.4779 0001323  92.7411 267.3732 15.08840879112151,6917.878,95.437,540.658,538.827,0.0
52000.0,STARLINK-3653,PAYLOAD,2024-03-20 01:13:49,15.08834318,0.0001332,53.2193,9.6126,90.6649,269.4496,1.4396e-05,-5.9e-07,0.0,0 STARLINK-3653,1 52000U 22025AW  24080.05126591 -.00000059  00000-0  14396-4 0  9993,2 52000  53.2193   9.6126 0001332  90.6649 269.4496 15.08834318113814,6917.898,95.438,540.684,538.841,0.0
52000.0,STARLINK-3653,PAYLOAD,2024-03-20 04:24:35,15.08834567,0.0001304,53.2189,9.0174,82.762,277.3521,1.1204e-05,-1.1e-06,0.0,0 STARLINK-3653,1 52000U 22025AW  24080.18374674 -.00000110  00000-0  11204-4 0  9997,2 52000  53.2189   9.0174 0001304  82.7620 277.3521 15.08834567112302,6917.897,95.438,540.664,538.86,0.0
52000.0,STARLINK-3653,PAYLOAD,2024-03-21 02:39:59,15.08843371,0.0001343,53.2188,4.8556,95.0931,265.0215,5.9507e-05,6.59e-06,0.0,0 STARLINK-3653,1 52000U 22025AW  24081.11110207  .00000659  00000-0  59507-4 0  9996,2 52000  53.2188   4.8556 0001343  95.0931 265.0215 15.08843371113974,6917.87,95.437,540.664,538.806,0.0
52000.0,STARLINK-3653,PAYLOAD,2024-03-21 12:12:16,15.08862495,0.0001122,53.2183,3.0696,92.7906,267.3214,0.00019437,2.809e-05,0.0,0 STARLINK-3653,1 52000U 22025AW  24081.50852250  .00002809  00000-0  19437-3 0  9996,2 52000  53.2183   3.0696 0001122  92.7906 267.3214 15.08862495114036,6917.812,95.436,540.453,538.9,0.0
52000.0,STARLINK-3653,PAYLOAD,2024-03-22 04:06:07,15.08856997,0.000131,53.2182,0.0978,105.0231,255.0906,0.00022322,3.268e-05,0.0,0 STARLINK-3653,1 52000U 22025AW  24082.17092501  .00003268  00000-0  22322-3 0  9992,2 52000  53.2182   0.0978 0001310 105.0231 255.0906 15.08856997114136,6917.828,95.436,540.6,538.787,0.0
52000.0,STARLINK-3653,PAYLOAD,2024-03-22 18:24:37,15.08840781,0.0001026,53.2187,357.422,108.2957,251.8147,-6.78e-05,-1.367e-05,0.0,0 STARLINK-3653,1 52000U 22025AW  24082.76710437 -.00001367  00000-0 -67800-4 0  9993,2 52000  53.2187 357.4220 0001026 108.2957 251.8147 15.08840781114229,6917.878,95.438,540.453,539.033,0.0
52000.0,STARLINK-3653,PAYLOAD,2024-03-22 21:35:24,15.08841255,0.0001025,53.2194,356.8242,96.4169,263.694,-0.00011929,-2.186e-05,0.0,0 STARLINK-3653,1 52000U 22025AW  24082.89958698 -.00002186  00000-0 -11929-3 0  9990,2 52000  53.2194 356.8242 0001025  96.4169 263.6940 15.08841255112717,6917.877,95.437,540.451,539.032,0.0
52000.0,STARLINK-3653,PAYLOAD,2024-03-23 21:26:11,15.08828667,0.0001685,53.2189,352.3626,115.3785,244.7382,-2.7484e-05,-7.25e-06,0.0,0 STARLINK-3653,1 52000U 22025AW  24083.89319262 -.00000725  00000-0 -27484-4 0  9990,2 52000  53.2189 352.3626 0001685 115.3785 244.7382 15.08828667114393,6917.915,95.438,540.946,538.614,0.0
52000.0,STARLINK-3653,PAYLOAD,2024-03-24 03:47:44,15.08838967,0.0001923,53.218,351.1732,132.7352,227.3802,-9.1757e-05,-1.748e-05,0.0,0 STARLINK-3653,1 52000U 22025AW  24084.15814899 -.00001748  00000-0 -91757-4 0  9996,2 52000  53.2180 351.1732 0001923 132.7352 227.3802 15.08838967114430,6917.884,95.438,541.079,538.418,0.0
